NORAD_CAT_ID,OBJECT_NAME,OBJECT_TYPE,EPOCH,MEAN_MOTION,ECCENTRICITY,INCLINATION,RA_OF_ASC_NODE,ARG_OF_PERICENTER,MEAN_ANOMALY,BSTAR,MEAN_MOTION_DOT,MEAN_MOTION_DDOT,TLE_LINE0,TLE_LINE1,TLE_LINE2,SEMIMAJOR_AXIS,PERIOD,APOGEE,PERIGEE,DECAYED
52379.0,STARLINK-3800,PAYLOAD,2023-03-10 09:29:34,15.08870437,0.000151,53.215,66.0835,91.0056,269.1109,0.00090554,0.00014165,0.0,0 STARLINK-3800,1 52379U 22045BA  23069.39553571  .00014165  00000-0  90554-3 0  9990,2 52379  53.2150  66.0835 0001510  91.0056 269.1109 15.08870437 50578,6917.787,95.436,540.697,538.608,0.0
52379.0,STARLINK-3800,PAYLOAD,2023-03-11 06:09:35,15.0884688,0.0001155,53.2148,62.2178,99.0059,261.1063,0.0005349,8.237e-05,0.0,0 STARLINK-3800,1 52379U 22045BA  23070.25666017  .00008237  00000-0  53490-3 0  9998,2 52379  53.2148  62.2178 0001155  99.0059 261.1063 15.08846880 50700,6917.859,95.437,540.523,538.925,0.0
52379.0,STARLINK-3800,PAYLOAD,2023-03-11 10:55:44,15.08855288,0.0001404,53.2167,61.3251,102.1627,257.9522,0.00086086,0.00013445,0.0,0 STARLINK-3800,1 52379U 22045BA  23070.45537868  .00013445  00000-0  86086-3 0  9995,2 52379  53.2167  61.3251 0001404 102.1627 257.9522 15.08855288 50735,6917.834,95.437,540.67,538.727,0.0
52379.0,STARLINK-3800,PAYLOAD,2023-03-11 23:38:50,15.08826596,0.0001635,53.2162,58.9475,101.7814,258.3361,0.00066755,0.00010348,0.0,0 STARLINK-3800,1 52379U 22045BA  23070.98530991  .00010348  00000-0  66755-3 0  9993,2 52379  53.2162  58.9475 0001635 101.7814 258.3361 15.08826596 50814,6917.921,95.438,540.917,538.655,0.0
52379.0,STARLINK-3800,PAYLOAD,2023-03-12 10:46:32,15.08858859,0.0001681,53.2164,56.8658,113.2582,246.8587,0.0021584,0.00034248,0.0,0 STARLINK-3800,1 52379U 22045BA  23071.44898892  .00034248  00000-0  21584-2 0  9997,2 52379  53.2164  56.8658 0001681 113.2582 246.8587 15.08858859 50883,6917.823,95.436,540.851,538.525,0.0
52379.0,STARLINK-3800,PAYLOAD,2023-03-12 23:29:37,15.08875688,0.0002395,53.2176,54.4896,121.5209,238.6017,0.0015981,0.00025263,0.0,0 STARLINK-3800,1 52379U 22045BA  23071.97890281  .00025263  00000-0  15981-2 0  9990,2 52379  53.2176  54.4896 0002395 121.5209 238.6017 15.08875688 50960,6917.771,95.435,541.293,537.98,0.0
52379.0,STARLINK-3800,PAYLOAD,2023-03-13 09:01:56,15.08839314,0.0001224,53.2164,52.7037,102.1433,257.9696,0.0011968,0.0001881,0.0,0 STARLINK-3800,1 52379U 22045BA  23072.37634667  .00018810  00000-0  11968-2 0  9990,2 52379  53.2164  52.7037 0001224 102.1433 257.9696 15.08839314 51020,6917.882,95.438,540.594,538.901,0.0
52379.0,STARLINK-3800,PAYLOAD,2023-03-14 05:41:57,15.08850564,0.000132,53.2158,48.8358,113.9559,246.1572,0.0017248,0.00027277,0.0,0 STARLINK-3800,1 52379U 22045BA  23073.23747220  .00027277  00000-0  17248-2 0  9990,2 52379  53.2158  48.8358 0001320 113.9559 246.1572 15.08850564 51158,6917.848,95.437,540.626,538.8,0.0
52379.0,STARLINK-3800,PAYLOAD,2023-03-14 07:17:20,15.08853768,0.0001315,53.2157,48.5383,109.6565,250.457,0.0017089,0.00027024,0.0,0 STARLINK-3800,1 52379U 22045BA  23073.30371187  .00027024  00000-0  17089-2 0  9996,2 52379  53.2157  48.5383 0001315 109.6565 250.4570 15.08853768 51161,6917.838,95.437,540.613,538.794,0.0
52379.0,STARLINK-3800,PAYLOAD,2023-03-14 15:14:16,15.08841784,0.0001706,53.2171,47.054,88.3594,271.7593,0.0014651,0.00023107,0.0,0 STARLINK-3800,1 52379U 22045BA  23073.63491284  .00023107  00000-0  14651-2 0  9993,2 52379  53.2171  47.0540 0001706  88.3594 271.7593 15.08841784 51217,6917.875,95.437,540.92,538.56,0.0
52379.0,STARLINK-3800,PAYLOAD,2023-03-15 10:18:52,15.08881323,0.0001379,53.2158,43.4843,100.4,259.7147,0.0010762,0.00016901,0.0,0 STARLINK-3800,1 52379U 22045BA  23074.42977703  .00016901  00000-0  10762-2 0  9999,2 52379  53.2158  43.4843 0001379 100.4000 259.7147 15.08881323 51339,6917.754,95.435,540.573,538.665,0.0
52379.0,STARLINK-3800,PAYLOAD,2023-03-16 05:23:30,15.08852321,0.0001269,53.2159,39.9168,105.7682,254.345,0.00015586,2.194e-05,0.0,0 STARLINK-3800,1 52379U 22045BA  23075.22465957  .00002194  00000-0  15586-3 0  9990,2 52379  53.2159  39.9168 0001269 105.7682 254.3450 15.08852321 51459,6917.843,95.437,540.586,538.83,0.0
52379.0,STARLINK-3800,PAYLOAD,2023-03-16 21:17:22,15.08831713,0.0001095,53.2169,36.9428,98.8096,261.302,0.00037292,5.651e-05,0.0,0 STARLINK-3800,1 52379U 22045BA  23075.88706808  .00005651  00000-0  37292-3 0  9994,2 52379  53.2169  36.9428 0001095  98.8096 261.3020 15.08831713 51558,6917.906,95.438,540.528,539.013,0.0
52379.0,STARLINK-3800,PAYLOAD,2023-03-17 06:49:41,15.08835122,0.0001014,53.2167,35.159,84.2068,275.904,0.00054651,8.419e-05,0.0,0 STARLINK-3800,1 52379U 22045BA  23076.28451168  .00008419  00000-0  54651-3 0  9998,2 52379  53.2167  35.1590 0001014  84.2068 275.9040 15.08835122 51614,6917.895,95.438,540.462,539.059,0.0
52379.0,STARLINK-3800,PAYLOAD,2023-03-17 14:46:37,15.08836802,0.0001032,53.2164,33.6716,82.7873,277.3237,0.00056793,8.761e-05,0.0,0 STARLINK-3800,1 52379U 22045BA  23076.61571349  .00008761  00000-0  56793-3 0  9998,2 52379  53.2164  33.6716 0001032  82.7873 277.3237 15.08836802 51666,6917.89,95.438,540.469,539.041,0.0
52379.0,STARLINK-3800,PAYLOAD,2023-03-18 03:29:42,15.0885256,0.0001029,53.2168,31.2914,88.7956,271.3154,0.0011715,0.00018412,0.0,0 STARLINK-3800,1 52379U 22045BA  23077.14563060  .00018412  00000-0  11715-2 0  9996,2 52379  53.2168  31.2914 0001029  88.7956 271.3154 15.08852560 51748,6917.842,95.437,540.419,538.995,0.0
52379.0,STARLINK-3800,PAYLOAD,2023-03-18 06:40:28,15.08860185,0.0001016,53.2169,30.6965,87.768,272.3428,0.0010678,0.00016756,0.0,0 STARLINK-3800,1 52379U 22045BA  23077.27810795  .00016756  00000-0  10678-2 0  9996,2 52379  53.2169  30.6965 0001016  87.7680 272.3428 15.08860185 51766,6917.819,95.436,540.387,538.981,0.0
52379.0,STARLINK-3800,PAYLOAD,2023-03-19 03:20:29,15.08849183,0.0001023,53.216,26.8321,66.538,293.572,0.0003707,5.618e-05,0.0,0 STARLINK-3800,1 52379U 22045BA  23078.13923012  .00005618  00000-0  37070-3 0  9990,2 52379  53.2160  26.8321 0001023  66.5380 293.5720 15.08849183 51899,6917.852,95.437,540.425,539.01,0.0
52379.0,STARLINK-3800,PAYLOAD,2023-03-20 06:22:02,15.08854726,0.0001036,53.2166,21.7776,82.3136,277.7973,0.00082278,0.00012836,0.0,0 STARLINK-3800,1 52379U 22045BA  23079.26530966  .00012836  00000-0  82278-3 0  9997,2 52379  53.2166  21.7776 0001036  82.3136 277.7973 15.08854726 52065,6917.835,95.437,540.417,538.984,0.0
52379.0,STARLINK-3800,PAYLOAD,2023-03-20 12:43:35,15.08838186,0.0001121,53.2173,20.5859,84.1929,275.9191,0.00031644,4.752e-05,0.0,0 STARLINK-3800,1 52379U 22045BA  23079.53027108  .00004752  00000-0  31644-3 0  9995,2 52379  53.2173  20.5859 0001121  84.1929 275.9191 15.08838186 52106,6917.886,95.438,540.526,538.975,0.0
52379.0,STARLINK-3800,PAYLOAD,2023-03-21 04:37:26,15.08858915,0.0001211,53.2172,17.6159,107.1068,253.0057,0.00072273,0.00011239,0.0,0 STARLINK-3800,1 52379U 22045BA  23080.19266684  .00011239  00000-0  72273-3 0  9994,2 52379  53.2172  17.6159 0001211 107.1068 253.0057 15.08858915 52206,6917.823,95.436,540.525,538.85,0.0
52379.0,STARLINK-3800,PAYLOAD,2023-03-22 04:28:14,15.08834594,8.04e-05,53.2165,13.1537,92.11,267.9984,0.00011144,1.486e-05,0.0,0 STARLINK-3800,1 52379U 22045BA  23081.18627520  .00001486  00000-0  11144-3 0  9997,2 52379  53.2165  13.1537 0000804  92.1100 267.9984 15.08834594 52352,6917.897,95.438,540.318,539.206,0.0
52379.0,STARLINK-3800,PAYLOAD,2023-03-22 06:03:37,15.08835228,8.13e-05,53.2165,12.8563,95.1148,264.9937,0.00016226,2.295e-05,0.0,0 STARLINK-3800,1 52379U 22045BA  23081.25251573  .00002295  00000-0  16226-3 0  9991,2 52379  53.2165  12.8563 0000813  95.1148 264.9937 15.08835228 52363,6917.895,95.438,540.322,539.198,0.0
52379.0,STARLINK-3800,PAYLOAD,2023-03-23 04:19:01,15.08867095,0.0001075,53.2163,8.6936,108.7064,251.4045,0.001099,0.00017259,0.0,0 STARLINK-3800,1 52379U 22045BA  23082.17987272  .00017259  00000-0  10990-2 0  9992,2 52379  53.2163   8.6936 0001075 108.7064 251.4045 15.08867095 52501,6917.798,95.436,540.406,538.919,0.0
52379.0,STARLINK-3800,PAYLOAD,2023-03-24 04:09:47,15.08927745,0.0001406,53.2165,4.2331,109.2272,250.8872,0.0041403,0.00066385,0.0,0 STARLINK-3800,1 52379U 22045BA  23083.17346727  .00066385  00000-0  41403-2 0  9994,2 52379  53.2165   4.2331 0001406 109.2272 250.8872 15.08927745 52655,6917.612,95.432,540.45,538.505,0.0
52379.0,STARLINK-3800,PAYLOAD,2023-03-25 05:35:56,15.08898037,0.0001361,53.2162,359.4778,66.8472,293.2664,0.0020003,0.00031741,0.0,0 STARLINK-3800,1 52379U 22045BA  23084.23329377  .00031741  00000-0  20003-2 0  9995,2 52379  53.2162 359.4778 0001361  66.8472 293.2664 15.08898037 52811,6917.703,95.434,540.509,538.626,0.0
52379.0,STARLINK-3800,PAYLOAD,2023-03-25 21:29:49,15.08804792,0.0001767,53.2157,356.5045,63.5782,296.5391,0.00051168,7.857e-05,0.0,0 STARLINK-3800,1 52379U 22045BA  23084.89571528  .00007857  00000-0  51168-3 0  9992,2 52379  53.2157 356.5045 0001767  63.5782 296.5391 15.08804792 52917,6917.988,95.44,541.075,538.631,0.0
52379.0,STARLINK-3800,PAYLOAD,2023-03-26 22:56:01,15.08840707,0.0001516,53.2173,351.7461,72.4794,287.6364,0.0011777,0.00018505,0.0,0 STARLINK-3800,1 52379U 22045BA  23085.95556766  .00018505  00000-0  11777-2 0  9990,2 52379  53.2173 351.7461 0001516  72.4794 287.6364 15.08840707 53073,6917.878,95.438,540.792,538.694,0.0
52379.0,STARLINK-3800,PAYLOAD,2023-03-27 00:31:24,15.08848185,0.0001472,53.2173,351.4495,68.883,291.232,0.0013886,0.00021886,0.0,0 STARLINK-3800,1 52379U 22045BA  23086.02180694  .00021886  00000-0  13886-2 0  9991,2 52379  53.2173 351.4495 0001472  68.8830 291.2320 15.08848185 53080,6917.855,95.437,540.739,538.702,0.0
52379.0,STARLINK-3800,PAYLOAD,2023-03-27 21:11:24,15.08851817,0.0001253,53.2173,347.5844,62.627,297.485,0.00043133,6.586e-05,0.0,0 STARLINK-3800,1 52379U 22045BA  23086.88292343  .00006586  00000-0  43133-3 0  9999,2 52379  53.2173 347.5844 0001253  62.6270 297.4850 15.08851817 53218,6917.844,95.437,540.576,538.842,0.0
